NORAD_CAT_ID,OBJECT_NAME,OBJECT_TYPE,EPOCH,MEAN_MOTION,ECCENTRICITY,INCLINATION,RA_OF_ASC_NODE,ARG_OF_PERICENTER,MEAN_ANOMALY,BSTAR,MEAN_MOTION_DOT,MEAN_MOTION_DDOT,TLE_LINE0,TLE_LINE1,TLE_LINE2,SEMIMAJOR_AXIS,PERIOD,APOGEE,PERIGEE,DECAYED
55657.0,STARLINK-5328,PAYLOAD,2023-02-22 16:00:00,15.94754056,0.0037473,70.0,136.7809,163.1454,239.0194,-0.002645,-0.01087611,0.00036297,0 STARLINK-5328,1 55657U 23021AF  23053.66667824 -.01087611  36297-3 -26450-2 0  9999,2 55657  70.0000 136.7809 0037473 163.1454 239.0194 15.94754056  1307,6667.137,90.296,313.986,264.018,0.0
55657.0,STARLINK-5328,PAYLOAD,2023-02-22 22:00:00,15.94256078,0.0034083,69.9994,136.0517,163.2739,233.4655,-0.0028943,-0.01143558,0.00039614,0 STARLINK-5328,1 55657U 23021AF  23053.91667824 -.01143558  39614-3 -28943-2 0  9995,2 55657  69.9994 136.0517 0034083 163.2739 233.4655 15.94256078  1307,6668.525,90.324,313.118,267.662,0.0
55657.0,STARLINK-5328,PAYLOAD,2023-02-23 08:00:01,15.93352997,0.0029519,69.9998,134.8385,165.1652,101.5054,-0.0029955,-0.01111514,0.00037244,0 STARLINK-5328,1 55657U 23021AF  23054.33334491 -.01111514  37244-3 -29955-2 0  9991,2 55657  69.9998 134.8385 0029519 165.1652 101.5054 15.93352997  1408,6671.045,90.375,312.602,273.217,0.0
55657.0,STARLINK-5328,PAYLOAD,2023-02-23 14:00:01,15.92825706,0.0027301,69.9997,134.1108,166.0576,93.9291,-0.0031109,-0.01115526,0.00037293,0 STARLINK-5328,1 55657U 23021AF  23054.58334491 -.01115526  37293-3 -31109-2 0  9993,2 55657  69.9997 134.1108 0027301 166.0576  93.9291 15.92825706  1303,6672.517,90.405,312.598,276.165,0.0
55657.0,STARLINK-5328,PAYLOAD,2023-02-23 16:00:00,15.92640436,0.0026438,70.0001,133.8688,166.8326,210.8246,-0.0031078,-0.01101215,0.00036347,0 STARLINK-5328,1 55657U 23021AF  23054.66667824 -.01101215  36347-3 -31078-2 0  9995,2 55657  70.0001 133.8688 0026438 166.8326 210.8246 15.92640436  1453,6673.034,90.416,312.541,277.257,0.0
55657.0,STARLINK-5328,PAYLOAD,2023-02-23 22:00:00,15.92145334,0.0023529,69.9994,133.1417,167.9094,202.4144,-0.0033913,-0.01162176,0.00039949,0 STARLINK-5328,1 55657U 23021AF  23054.91667824 -.01162176  39949-3 -33913-2 0  9997,2 55657  69.9994 133.1417 0023529 167.9094 202.4144 15.92145334  1301,6674.417,90.444,311.987,280.578,0.0
55657.0,STARLINK-5328,PAYLOAD,2023-02-24 02:00:01,15.91746765,0.0022412,69.9999,132.6586,169.0597,76.14,-0.0032291,-0.01081876,0.00034863,0 STARLINK-5328,1 55657U 23021AF  23055.08334491 -.01081876  34863-3 -32291-2 0  9992,2 55657  69.9999 132.6586 0022412 169.0597  76.1400 15.91746765  1527,6675.532,90.467,312.358,282.435,0.0
55657.0,STARLINK-5328,PAYLOAD,2023-02-24 08:00:01,15.91223103,0.0019496,70.0,131.9326,172.3805,64.7037,-0.0033699,-0.01092512,0.00035315,0 STARLINK-5328,1 55657U 23021AF  23055.33334491 -.01092512  35315-3 -33699-2 0  9995,2 55657  70.0000 131.9326 0019496 172.3805  64.7037 15.91223103  1563,6676.996,90.496,311.879,285.844,0.0
55657.0,STARLINK-5328,PAYLOAD,2023-02-24 14:00:01,15.90706105,0.0017338,69.9998,131.2073,174.9498,53.5387,-0.0035389,-0.0111299,0.00036361,0 STARLINK-5328,1 55657U 23021AF  23055.58334491 -.01112990  36361-3 -35389-2 0  9995,2 55657  69.9998 131.2073 0017338 174.9498  53.5387 15.90706105  1300,6678.443,90.526,311.887,288.729,0.0
55657.0,STARLINK-5328,PAYLOAD,2023-02-24 18:00:00,15.90329323,0.0015971,69.9997,130.7247,177.7651,284.7427,-0.003481,-0.01072041,0.00033803,0 STARLINK-5328,1 55657U 23021AF  23055.75001157 -.01072041  33803-3 -34810-2 0  9992,2 55657  69.9997 130.7247 0015971 177.7651 284.7427 15.90329323  1631,6679.498,90.547,312.03,290.695,0.0
55657.0,STARLINK-5328,PAYLOAD,2023-02-24 22:00:00,15.90020282,0.0014051,69.9996,130.2414,182.1235,154.164,-0.0038268,-0.01156441,0.00038766,0 STARLINK-5328,1 55657U 23021AF  23055.91667824 -.01156441  38766-3 -38268-2 0  9990,2 55657  69.9996 130.2414 0014051 182.1235 154.1640 15.90020282  1300,6680.363,90.565,311.615,292.841,0.0
55657.0,STARLINK-5328,PAYLOAD,2023-02-25 02:00:01,15.89621508,0.0012966,70.0001,129.759,185.7798,24.1108,-0.0036154,-0.01070052,0.00033455,0 STARLINK-5328,1 55657U 23021AF  23056.08334491 -.01070052  33455-3 -36154-2 0  9995,2 55657  70.0001 129.7590 0012966 185.7798  24.1108 15.89621508  1686,6681.48,90.588,312.008,294.682,0.0
55657.0,STARLINK-5328,PAYLOAD,2023-02-25 08:00:01,15.89093227,0.0010921,70.0001,129.0358,194.8802,4.9905,-0.0037331,-0.01073608,0.0003349,0 STARLINK-5328,1 55657U 23021AF  23056.33334491 -.01073608  33490-3 -37331-2 0  9990,2 55657  70.0001 129.0358 0010921 194.8802   4.9905 15.89093227  1724,6682.961,90.618,312.124,297.527,0.0
55657.0,STARLINK-5328,PAYLOAD,2023-02-25 14:00:01,15.88572501,0.0009682,69.9996,128.313,204.6723,344.6971,-0.0038845,-0.01087182,0.00034106,0 STARLINK-5328,1 55657U 23021AF  23056.58334491 -.01087182  34106-3 -38845-2 0  9995,2 55657  69.9996 128.3130 0009682 204.6723 344.6971 15.88572501  1765,6684.421,90.647,312.758,299.814,0.0
55657.0,STARLINK-5328,PAYLOAD,2023-02-25 22:00:00,15.87903311,0.0008384,69.9995,127.3497,224.586,70.0329,-0.0042925,-0.01040366,0.0,0 STARLINK-5328,1 55657U 23021AF  23056.91667824 -.01040366  00000-0 -42925-2 0  9991,2 55657  69.9995 127.3497 0008384 224.5860  70.0329 15.87903311  1819,6686.299,90.686,313.77,302.558,0.0
55657.0,STARLINK-5328,PAYLOAD,2023-02-26 06:00:00,15.87190906,0.0008624,69.9993,126.3881,245.7831,153.2537,-0.0043987,-0.01030399,0.0,0 STARLINK-5328,1 55657U 23021AF  23057.25001157 -.01030399  00000-0 -43987-2 0  9994,2 55657  69.9993 126.3881 0008624 245.7831 153.2537 15.87190906  1872,6688.3,90.726,315.933,304.397,0.0
55657.0,STARLINK-5328,PAYLOAD,2023-02-26 14:00:01,15.86440227,0.0009138,69.9998,125.4275,261.1456,241.4785,-0.0042419,-0.00965166,0.0,0 STARLINK-5328,1 55657U 23021AF  23057.58334491 -.00965166  00000-0 -42419-2 0  9997,2 55657  69.9998 125.4275 0009138 261.1456 241.4785 15.86440227  1306,6690.409,90.769,318.388,306.161,0.0
55657.0,STARLINK-5328,PAYLOAD,2023-02-26 22:00:00,15.85743383,0.0008093,69.9994,124.4675,269.3495,335.9917,-0.0044646,-0.00979069,0.0,0 STARLINK-5328,1 55657U 23021AF  23057.91667824 -.00979069  00000-0 -44646-2 0  9994,2 55657  69.9994 124.4675 0008093 269.3495 335.9917 15.85743383  1974,6692.369,90.809,319.651,308.818,0.0
55657.0,STARLINK-5328,PAYLOAD,2023-02-27 14:00:01,15.8434252,0.0007848,69.9998,122.5503,272.0817,176.1552,-0.004892,-0.00999777,0.0,0 STARLINK-5328,1 55657U 23021AF  23058.58334491 -.00999777  00000-0 -48920-2 0  9996,2 55657  69.9998 122.5503 0007848 272.0817 176.1552 15.84342520  2083,6696.314,90.889,323.434,312.923,0.0
55657.0,STARLINK-5328,PAYLOAD,2023-02-27 20:00:01,15.83815809,0.00057,69.9997,121.8333,271.3643,162.0834,-0.0050337,-0.01000933,0.0,0 STARLINK-5328,1 55657U 23021AF  23058.83334491 -.01000933  00000-0 -50337-2 0  9997,2 55657  69.9997 121.8333 0005700 271.3643 162.0834 15.83815809  1304,6697.798,90.92,323.481,315.845,0.0
55657.0,STARLINK-5328,PAYLOAD,2023-02-28 14:00:01,15.82208053,0.0003673,70.0,119.6835,271.0668,115.1693,-0.0052782,-0.00974139,0.0,0 STARLINK-5328,1 55657U 23021AF  23059.58334491 -.00974139  00000-0 -52782-2 0  9993,2 55657  70.0000 119.6835 0003673 271.0668 115.1693 15.82208053  1303,6702.335,91.012,326.662,321.738,0.0
55657.0,STARLINK-5328,PAYLOAD,2023-02-28 16:00:00,15.82031687,0.0003507,69.9998,119.4451,271.5566,229.1676,-0.0053229,-0.00974181,0.0,0 STARLINK-5328,1 55657U 23021AF  23059.66667824 -.00974181  00000-0 -53229-2 0  9995,2 55657  69.9998 119.4451 0003507 271.5566 229.1676 15.82031687  2255,6702.833,91.022,327.049,322.347,0.0
55657.0,STARLINK-5328,PAYLOAD,2023-02-28 22:00:00,15.81518862,0.0003649,69.9997,118.7292,278.9008,204.9641,-0.0056024,-0.00998268,0.0,0 STARLINK-5328,1 55657U 23021AF  23059.91667824 -.00998268  00000-0 -56024-2 0  9991,2 55657  69.9997 118.7292 0003649 278.9008 204.9641 15.81518862  1300,6704.282,91.052,328.593,323.7,0.0
55657.0,STARLINK-5328,PAYLOAD,2023-03-01 14:00:01,15.80089658,0.00037,70.0002,116.8252,267.3614,49.2397,-0.0058254,-0.00974319,0.0,0 STARLINK-5328,1 55657U 23021AF  23060.58334491 -.00974319  00000-0 -58254-2 0  9995,2 55657  70.0002 116.8252 0003700 267.3614  49.2397 15.80089658  2391,6708.324,91.134,332.671,327.707,0.0
55657.0,STARLINK-5328,PAYLOAD,2023-03-01 22:00:00,15.79394098,0.0003686,69.9996,115.8733,280.1413,131.5499,-0.0061275,-0.00990734,0.0,0 STARLINK-5328,1 55657U 23021AF  23060.91667824 -.00990734  00000-0 -61275-2 0  9997,2 55657  69.9996 115.8733 0003686 280.1413 131.5499 15.79394098  1309,6710.293,91.174,334.632,329.685,0.0
55657.0,STARLINK-5328,PAYLOAD,2023-03-02 06:00:00,15.7869779,0.0003529,69.9999,114.9239,276.6572,229.2754,-0.0064211,-0.0100409,0.0,0 STARLINK-5328,1 55657U 23021AF  23061.25001157 -.01004090  00000-0 -64211-2 0  9991,2 55657  69.9999 114.9239 0003529 276.6572 229.2754 15.78697790  2501,6712.266,91.214,336.5,331.762,0.0
55657.0,STARLINK-5328,PAYLOAD,2023-03-02 20:00:01,15.77441451,0.0003443,69.9998,113.264,270.6221,308.212,-0.0066006,-0.00978308,0.0,0 STARLINK-5328,1 55657U 23021AF  23061.83334491 -.00978308  00000-0 -66006-2 0  9990,2 55657  69.9998 113.2640 0003443 270.6221 308.2120 15.77441451  1300,6715.83,91.287,340.007,335.382,0.0
55657.0,STARLINK-5328,PAYLOAD,2023-03-03 12:00:00,15.76025842,0.0003683,70.0003,111.3709,280.9217,120.8971,-0.0069892,-0.00973374,0.0,0 STARLINK-5328,1 55657U 23021AF  23062.50001157 -.00973374  00000-0 -69892-2 0  9999,2 55657  70.0003 111.3709 0003683 280.9217 120.8971 15.76025842  2708,6719.851,91.369,344.191,339.241,0.0
55657.0,STARLINK-5328,PAYLOAD,2023-03-03 14:00:01,15.75877426,0.0003537,69.9994,111.1339,274.9634,239.4767,-0.007334,-0.01026973,0.0,0 STARLINK-5328,1 55657U 23021AF  23062.58334491 -.01026973  00000-0 -73340-2 0  9995,2 55657  69.9994 111.1339 0003537 274.9634 239.4767 15.75877426  1302,6720.273,91.378,344.514,339.761,0.0
